DELTA 2 R/B(1)          
1 20453U 90008B   26055.27704000  .00059249  00000+0  74298-3 0  9990
2 20453  35.6034 262.7467 0088234 133.7714 227.0363 15.53959114924047
COSMOS 2058             
1 20465U 90010A   26055.47193583  .00004080  00000+0  24117-3 0  9994
2 20465  82.4674  60.4501 0010297  27.9457 332.2323 15.11188148940244
SL-14 R/B               
1 20466U 90010B   26055.33242627  .00000375  00000+0  42606-4 0  9991
2 20466  82.5001 279.9383 0019496 348.3941  11.6822 14.83556186926507
SL-14 R/B               
1 20511U 90018B   26055.47241580  .00000484  00000+0  57778-4 0  9999
2 20511  82.5182 235.4454 0017378 132.3081 227.9609 14.82128363920620
HST                     
1 20580U 90037B   26055.50023498  .00007544  00000+0  25044-3 0  9990
2 20580  28.4688 129.9586 0001224 343.5481  16.5075 15.29250789771298
SL-16 R/B               
1 20625U 90046B   26055.47784186  .00000017  00000+0  33516-4 0  9996
2 20625  71.0016 325.6608 0015778 317.6923  42.2982 14.15015233846528
COSMOS 2084             
1 20663U 90055A   26055.30580449  .00003091  00000+0  22669-3 0  9997
2 20663  62.7912  21.2210 0019170 186.8885 173.1955 15.05554175934304
SL-6 R/B(2)             
1 20666U 90055D   26055.40326381  .00002173  00000+0  17224-3 0  9995
2 20666  62.7832 299.0322 0022701 343.6258  16.4105 15.03524237936197
SL-8 R/B                
1 20775U 90078B   26055.06681248  .00015018  00000+0  44059-3 0  9997
2 20775  82.9006 263.5590 0365179  59.7005 303.9811 14.88570021807270
SL-8 R/B                
1 21088U 91006B   26055.47944469  .00000055  00000+0  39201-4 0  9998
2 21088  82.9459 179.8660 0023656  73.7610 358.9983 13.77492776762251
OKEAN-3                 
1 21397U 91039A   26055.31291561  .00003487  00000+0  24528-3 0  9995
2 21397  82.5203 349.7995 0014996  22.9720 337.2174 15.04698290863021
COSMOS 2151             
1 21422U 91042A   26055.47573742  .00001530  00000+0  12054-3 0  9997
2 21422  82.4940  96.4254 0014115 103.1258 257.1542 15.00048626861218
